OBJECT_NAME,OBJECT_ID,EPOCH,MEAN_MOTION,ECCENTRICITY,INCLINATION,RA_OF_ASC_NODE,ARG_OF_PERICENTER,MEAN_ANOMALY,EPHEMERIS_TYPE,CLASSIFICATION_TYPE,NORAD_CAT_ID,ELEMENT_SET_NO,REV_AT_EPOCH,BSTAR,MEAN_MOTION_DOT,MEAN_MOTION_DDOT
ONEWEB-0410,2022-012A,2026-06-14T02:29:36.676608,13.17648390,.00031011,87.9146,6.4701,76.5930,283.5547,0,U,51622,999,21329,-.58989452E-4,-.1E-6,0
ONEWEB-0411,2022-012B,2026-06-14T04:30:23.280480,13.10369357,.00016481,87.8839,36.8640,100.7172,259.4141,0,U,51623,999,20889,.36027568E-3,.138E-5,0
ONEWEB-0415,2022-012C,2026-06-14T04:25:37.032960,13.10369926,.00018095,87.8835,36.8637,90.9873,269.1461,0,U,51624,999,20889,.10130881E-2,.366E-5,0
ONEWEB-0416,2022-012D,2026-06-14T04:42:20.498976,13.10370401,.00020605,87.8829,36.8794,94.6366,265.4997,0,U,51625,999,20893,-.77883876E-3,-.259E-5,0
ONEWEB-0422,2022-012E,2026-06-14T06:22:53.620032,13.17649007,.00012361,87.9144,6.4391,82.5415,277.5856,0,U,51626,999,21342,.74056292E-4,.42E-6,0
ONEWEB-0423,2022-012F,2026-06-14T06:13:10.597152,13.17650382,.00019216,87.9138,6.4462,84.3167,275.8184,0,U,51627,999,21331,.1323242E-4,.18E-6,0
ONEWEB-0425,2022-012G,2026-06-14T03:06:43.323840,13.10372848,.00020861,87.8834,36.8759,77.7938,282.3423,0,U,51628,999,20892,-.17282689E-2,-.591E-5,0
ONEWEB-0428,2022-012H,2026-06-14T04:28:00.051744,13.10369794,.00017664,87.8831,36.8720,81.6989,278.4338,0,U,51629,999,20889,.59040995E-3,.219E-5,0
ONEWEB-0431,2022-012J,2026-06-14T03:44:46.522464,13.10376855,.0001505,87.8839,36.8706,100.7964,259.3333,0,U,51630,999,20894,.55990992E-3,.208E-5,0
ONEWEB-0434,2022-012K,2026-06-14T03:11:41.683776,13.10372730,.00023371,87.8839,36.9000,72.7189,287.4194,0,U,51631,999,20892,-.17208246E-2,-.588E-5,0
ONEWEB-0435,2022-012L,2026-06-14T03:23:25.809216,13.10373370,.00014453,87.8834,36.8854,82.4870,277.6421,0,U,51632,999,20891,-.14867934E-2,-.506E-5,0
ONEWEB-0436,2022-012M,2026-06-14T06:01:00.776352,13.17649083,.00016386,87.9143,6.4295,88.9515,271.1804,0,U,51633,999,21329,.1183515E-3,.59E-6,0
ONEWEB-0438,2022-012N,2026-06-14T04:49:30.148896,13.10370674,.00019835,87.8832,36.8756,80.7136,279.4216,0,U,51634,999,20895,-.12644565E-2,-.429E-5,0
ONEWEB-0439,2022-012P,2026-06-14T03:04:20.688672,13.10373160,.00017916,87.8831,36.8776,79.2043,280.9286,0,U,51635,999,20892,-.15585085E-2,-.531E-5,0
ONEWEB-0442,2022-012Q,2026-06-14T02:11:23.471232,13.17648899,.00024079,87.9138,6.4943,83.5363,276.6043,0,U,51636,999,21326,.54867894E-4,.34E-6,0
ONEWEB-0443,2022-012R,2026-06-14T06:18:01.244160,13.17649649,.00018167,87.9135,6.4611,76.3005,283.8329,0,U,51637,999,21333,.449667E-6,.13E-6,0
ONEWEB-0444,2022-012S,2026-06-14T04:39:56.707776,13.10370494,.00018286,87.8829,36.8632,77.7508,282.3824,0,U,51638,999,20894,-.72131023E-3,-.239E-5,0
ONEWEB-0445,2022-012T,2026-06-14T03:21:03.716640,13.10374452,.00018394,87.8845,36.8626,89.0501,271.0838,0,U,51639,999,20894,-.16494342E-2,-.563E-5,0
ONEWEB-0446,2022-012U,2026-06-14T04:37:33.231072,13.10369235,.00018664,87.8832,36.8805,87.2924,272.8417,0,U,51640,999,20893,-.3161318E-3,-.98E-6,0
ONEWEB-0448,2022-012V,2026-06-14T04:44:43.654272,13.10370732,.00017596,87.8830,36.8760,80.1617,279.9709,0,U,51641,999,20890,-.92024046E-3,-.309E-5,0
ONEWEB-0449,2022-012W,2026-06-14T04:51:53.565984,13.10370823,.00021859,87.8836,36.8604,75.6136,284.5234,0,U,51642,999,20891,-.15234042E-2,-.519E-5,0
ONEWEB-0451,2022-012X,2026-06-14T05:56:10.241664,13.17649215,.00020103,87.9146,6.4276,82.8960,277.2400,0,U,51643,999,21327,.10384259E-3,.53E-6,0
ONEWEB-0452,2022-012Y,2026-06-14T05:53:43.433376,13.17648826,.00019218,87.9137,6.4651,78.1388,281.9959,0,U,51644,999,21328,.26124996E-4,.23E-6,0
ONEWEB-0456,2022-012AA,2026-06-14T03:16:15.318624,13.10372673,.00016516,87.8846,36.8613,80.7355,279.3959,0,U,51646,999,20894,-.15280609E-2,-.521E-5,0
ONEWEB-0457,2022-012AB,2026-06-14T04:32:34.600704,13.10368944,.00021539,87.8831,36.8687,89.3362,270.8012,0,U,51647,999,20895,.22051703E-3,.9E-6,0
ONEWEB-0458,2022-012AC,2026-06-14T03:13:53.235552,13.10372441,.00018921,87.8844,36.8677,76.0193,284.1145,0,U,51648,999,20890,-.16876966E-2,-.576E-5,0
ONEWEB-0461,2022-012AD,2026-06-14T06:25:18.721056,13.17648675,.00019508,87.9143,6.4376,89.6751,270.4604,0,U,51649,999,21350,.13579689E-3,.66E-6,0
ONEWEB-0463,2022-012AE,2026-06-14T05:58:35.790240,13.17648850,.00019439,87.9134,6.4642,91.0244,269.1111,0,U,51650,999,21328,.18450007E-3,.85E-6,0
ONEWEB-0464,2022-012AF,2026-06-14T03:09:06.223392,13.10372563,.00015941,87.8834,36.8895,75.6931,284.4373,0,U,51651,999,20892,-.17598422E-2,-.602E-5,0
ONEWEB-0468,2022-012AG,2026-06-14T03:18:40.087872,13.10373811,.00015599,87.8834,36.8829,74.6856,285.4444,0,U,51652,999,20890,-.16752665E-2,-.572E-5,0
